[{"OBJECT_NAME":"STARLINK-32247","OBJECT_ID":"2024-144X","EPOCH":"2026-03-09T16:29:57.257664","MEAN_MOTION":15.30186893,"ECCENTRICITY":9.306e-5,"INCLINATION":53.1601,"RA_OF_ASC_NODE":206.716,"ARG_OF_PERICENTER":97.4978,"MEAN_ANOMALY":262.6128,"EPHEMERIS_TYPE":0,"CLASSIFICATION_TYPE":"U","NORAD_CAT_ID":60446,"ELEMENT_SET_NO":999,"REV_AT_EPOCH":8949,"BSTAR":-1.9339608e-5,"MEAN_MOTION_DOT":-9.31e-6,"MEAN_MOTION_DDOT":0},{"OBJECT_NAME":"OKEAN-1","OBJECT_ID":"1988-056A","EPOCH":"2026-03-09T21:19:04.260000","MEAN_MOTION":15.31672069,"ECCENTRICITY":0.00129431,"INCLINATION":82.4671,"RA_OF_ASC_NODE":262.7586,"ARG_OF_PERICENTER":168.0696,"MEAN_ANOMALY":192.0855,"EPHEMERIS_TYPE":0,"CLASSIFICATION_TYPE":"U","NORAD_CAT_ID":19274,"ELEMENT_SET_NO":999,"REV_AT_EPOCH":3511,"BSTAR":0.00038371192,"MEAN_MOTION_DOT":0.00011798,"MEAN_MOTION_DDOT":0}]
